ONEWEB-0685             
1 54679U 22166AP  24210.17950863  .00000021  00000+0  19085-4 0  9995
2 54679  87.9287  21.1469 0002119  87.8523 272.2853 13.21827375 80863
ONEWEB-0712             
1 54680U 22166AQ  24210.17156258  .00000033  00000+0  53466-4 0  9997
2 54680  87.9118   5.9560 0001468  85.0933 275.0365 13.17105139 81852
ONEWEB-0714             
1 54681U 22166AR  24210.18582283  .00000083  00000+0  17027-3 0  9997
2 54681  87.9290  21.1325 0002140  86.9851 273.1527 13.21824525 80984
ONEWEB-0532             
1 55140U 23004A   24210.51973574  .00000020  00000+0  18018-4 0  9997
2 55140  87.9191 142.9929 0002235  92.7388 267.3999 13.17648542 76893
ONEWEB-0533             
1 55141U 23004B   24210.19720468 -.00000221  00000+0 -64882-3 0  9998
2 55141  87.8958 127.8540 0002113  76.0617 284.0746 13.12444347 77686
ONEWEB-0541             
1 55142U 23004C   24210.22246776  .00000478  00000+0  13116-2 0  9993
2 55142  87.8992 158.1964 0002115  81.4044 278.7323 13.11417710 75657
ONEWEB-0543             
1 55143U 23004D   24210.43325501  .00000105  00000+0  23231-3 0  9998
2 55143  87.9136 112.6655 0001964  66.4401 293.6937 13.18686260 78927
ONEWEB-0544             
1 55144U 23004E   24210.42689892 -.00002381  00000+0 -60728-2 0  9995
2 55144  87.9141 112.6517 0001743  72.8747 287.2576 13.18698073 78923
